start=new Date('2022-04-19T00:00:00.000Z').valueOf();
sats=[{"ECCENTRICITY":"0.00022580","SITE":"AFETR","NORAD_CAT_ID":"47124","RA_OF_ASC_NODE":"205.3282","EPHEMERIS_TYPE":"0","LAUNCH_DATE":"2020-11-25","OBJECT_NAME":"STARLINK-1785","GP_ID":"201579316","TIME_SYSTEM":"UTC","CLASSIFICATION_TYPE":"U","SEMIMAJOR_AXIS":"6925.258","DECAY_DATE":null,"CENTER_NAME":"EARTH","EPOCH":"2022-04-18T18:45:45.542304","TLE_LINE1":"1 47124U 20088C   22108.78177711  .00015880  00000-0  10817-2 0  9999","OBJECT_TYPE":"PAYLOAD","MEAN_MOTION_DOT":"0.00015880","ARG_OF_PERICENTER":"51.5898","REV_AT_EPOCH":"7760","ELEMENT_SET_NO":"999","COUNTRY_CODE":"US","MEAN_MOTION_DDOT":"0.0000000000000","MEAN_MOTION":"15.06429437","APOAPSIS":"548.687","BSTAR":"0.00108170000000","INCLINATION":"53.0537","FILE":"3407402","MEAN_ANOMALY":"308.5294","PERIAPSIS":"545.560","REF_FRAME":"TEME","RCS_SIZE":"LARGE","TLE_LINE2":"2 47124  53.0537 205.3282 0002258  51.5898 308.5294 15.06429437 77600","MEAN_ELEMENT_THEORY":"SGP4","PERIOD":"95.590","OBJECT_ID":"2020-088C"},{"BSTAR":"0.00039347000000","APOAPSIS":"548.239","INCLINATION":"53.0532","FILE":"3407402","MEAN_ANOMALY":"313.8743","REF_FRAME":"TEME","PERIAPSIS":"546.153","RCS_SIZE":"LARGE","TLE_LINE2":"2 47126  53.0532 200.7295 0001506  46.2370 313.8743 15.06405820 77665","MEAN_ELEMENT_THEORY":"SGP4","OBJECT_ID":"2020-088E","PERIOD":"95.592","ECCENTRICITY":"0.00015060","NORAD_CAT_ID":"47126","SITE":"AFETR","RA_OF_ASC_NODE":"200.7295","LAUNCH_DATE":"2020-11-25","EPHEMERIS_TYPE":"0","GP_ID":"201579566","OBJECT_NAME":"STARLINK-1812","SEMIMAJOR_AXIS":"6925.331","TIME_SYSTEM":"UTC","CLASSIFICATION_TYPE":"U","DECAY_DATE":null,"CENTER_NAME":"EARTH","EPOCH":"2022-04-18T16:32:25.921824","OBJECT_TYPE":"PAYLOAD","TLE_LINE1":"1 47126U 20088E   22108.68918891  .00005585  00000-0  39347-3 0  9993","MEAN_MOTION_DOT":"0.00005585","REV_AT_EPOCH":"7766","ARG_OF_PERICENTER":"46.2370","COUNTRY_CODE":"US","ELEMENT_SET_NO":"999","MEAN_MOTION":"15.06405820","MEAN_MOTION_DDOT":"0.0000000000000"},{"INCLINATION":"53.0526","APOAPSIS":"548.602","BSTAR":"0.00036885000000","MEAN_ANOMALY":"313.2157","FILE":"3407402","TLE_LINE2":"2 47128  53.0526 180.6343 0002041  46.9003 313.2157 15.06408047 77943","RCS_SIZE":"LARGE","PERIAPSIS":"545.775","REF_FRAME":"TEME","PERIOD":"95.592","OBJECT_ID":"2020-088G","MEAN_ELEMENT_THEORY":"SGP4","RA_OF_ASC_NODE":"180.6343","SITE":"AFETR","NORAD_CAT_ID":"47128","ECCENTRICITY":"0.00020410","TIME_SYSTEM":"UTC","CLASSIFICATION_TYPE":"U","SEMIMAJOR_AXIS":"6925.324","OBJECT_NAME":"STARLINK-1837","GP_ID":"201579817","EPHEMERIS_TYPE":"0","LAUNCH_DATE":"2020-11-25","MEAN_MOTION_DOT":"0.00005218","TLE_LINE1":"1 47128U 20088G   22108.71315340  .00005218  00000-0  36885-3 0  9996","OBJECT_TYPE":"PAYLOAD","CENTER_NAME":"EARTH","EPOCH":"2022-04-18T17:06:56.453760","DECAY_DATE":null,"MEAN_MOTION_DDOT":"0.0000000000000","MEAN_MOTION":"15.06408047","ELEMENT_SET_NO":"999","COUNTRY_CODE":"US","ARG_OF_PERICENTER":"46.9003","REV_AT_EPOCH":"7794"},{"REV_AT_EPOCH":"7779","ARG_OF_PERICENTER":"47.8790","COUNTRY_CODE":"US","ELEMENT_SET_NO":"999","MEAN_MOTION":"15.06411621","MEAN_MOTION_DDOT":"0.0000000000000","DECAY_DATE":null,"EPOCH":"2022-04-18T14:37:00.908256","CENTER_NAME":"EARTH","OBJECT_TYPE":"PAYLOAD","TLE_LINE1":"1 47129U 20088H   22108.60903829  .00008437  00000-0  58447-3 0  9994","MEAN_MOTION_DOT":"0.00008437","LAUNCH_DATE":"2020-11-25","EPHEMERIS_TYPE":"0","GP_ID":"201580068","OBJECT_NAME":"STARLINK-1838","SEMIMAJOR_AXIS":"6925.313","TIME_SYSTEM":"UTC","CLASSIFICATION_TYPE":"U","ECCENTRICITY":"0.00017960","NORAD_CAT_ID":"47129","SITE":"AFETR","RA_OF_ASC_NODE":"191.0955","MEAN_ELEMENT_THEORY":"SGP4","OBJECT_ID":"2020-088H","PERIOD":"95.591","REF_FRAME":"TEME","PERIAPSIS":"545.934","RCS_SIZE":"LARGE","TLE_LINE2":"2 47129  53.0537 191.0955 0001796  47.8790 312.2352 15.06411621 77791","FILE":"3407402","MEAN_ANOMALY":"312.2352","BSTAR":"0.00058447000000","APOAPSIS":"548.422","INCLINATION":"53.0537"},{"DECAY_DATE":null,"CENTER_NAME":"EARTH","EPOCH":"2022-04-18T18:59:44.886336","OBJECT_TYPE":"PAYLOAD","TLE_LINE1":"1 47130U 20088J   22108.79149174  .00022222  00000-0  15043-2 0  9993","MEAN_MOTION_DOT":"0.00022222","REV_AT_EPOCH":"7753","ARG_OF_PERICENTER":"33.6120","COUNTRY_CODE":"US","ELEMENT_SET_NO":"999","MEAN_MOTION":"15.06441563","MEAN_MOTION_DDOT":"0.0000000000000","ECCENTRICITY":"0.00023750","NORAD_CAT_ID":"47130","SITE":"AFETR","RA_OF_ASC_NODE":"210.2671","LAUNCH_DATE":"2020-11-25","EPHEMERIS_TYPE":"0","GP_ID":"201578816","OBJECT_NAME":"STARLINK-1839","SEMIMAJOR_AXIS":"6925.221","CLASSIFICATION_TYPE":"U","TIME_SYSTEM":"UTC","REF_FRAME":"TEME","PERIAPSIS":"545.441","RCS_SIZE":"LARGE","TLE_LINE2":"2 47130  53.0537 210.2671 0002375  33.6120 326.5020 15.06441563 77536","MEAN_ELEMENT_THEORY":"SGP4","OBJECT_ID":"2020-088J","PERIOD":"95.590","BSTAR":"0.00150430000000","APOAPSIS":"548.731","INCLINATION":"53.0537","FILE":"3407402","MEAN_ANOMALY":"326.5020"},{"MEAN_ELEMENT_THEORY":"SGP4","OBJECT_ID":"2020-088M","PERIOD":"95.591","REF_FRAME":"TEME","PERIAPSIS":"546.081","TLE_LINE2":"2 47133  53.0522 190.5269 0001579  59.8510 300.2636 15.06412593 77807","RCS_SIZE":"LARGE","FILE":"3407402","MEAN_ANOMALY":"300.2636","INCLINATION":"53.0522","BSTAR":"0.00104090000000","APOAPSIS":"548.268","COUNTRY_CODE":"US","ELEMENT_SET_NO":"999","REV_AT_EPOCH":"7780","ARG_OF_PERICENTER":"59.8510","MEAN_MOTION":"15.06412593","MEAN_MOTION_DDOT":"0.0000000000000","CENTER_NAME":"EARTH","EPOCH":"2022-04-18T17:37:28.585632","DECAY_DATE":null,"MEAN_MOTION_DOT":"0.00015262","OBJECT_TYPE":"PAYLOAD","TLE_LINE1":"1 47133U 20088M   22108.73435863  .00015262  00000-0  10409-2 0  9990","LAUNCH_DATE":"2020-11-25","EPHEMERIS_TYPE":"0","SEMIMAJOR_AXIS":"6925.310","CLASSIFICATION_TYPE":"U","TIME_SYSTEM":"UTC","GP_ID":"201579066","OBJECT_NAME":"STARLINK-1843","ECCENTRICITY":"0.00015790","RA_OF_ASC_NODE":"190.5269","NORAD_CAT_ID":"47133","SITE":"AFETR"},{"MEAN_ELEMENT_THEORY":"SGP4","OBJECT_ID":"2020-088N","PERIOD":"95.591","REF_FRAME":"TEME","PERIAPSIS":"545.922","RCS_SIZE":"LARGE","TLE_LINE2":"2 47134  53.0538 200.3582 0001811  55.3684 304.7475 15.06412060 77679","FILE":"3407402","MEAN_ANOMALY":"304.7475","BSTAR":"0.00057833000000","APOAPSIS":"548.431","INCLINATION":"53.0538","REV_AT_EPOCH":"7767","ARG_OF_PERICENTER":"55.3684","COUNTRY_CODE":"US","ELEMENT_SET_NO":"999","MEAN_MOTION":"15.06412060","MEAN_MOTION_DDOT":"0.0000000000000","DECAY_DATE":null,"CENTER_NAME":"EARTH","EPOCH":"2022-04-18T18:34:30.343584","OBJECT_TYPE":"PAYLOAD","TLE_LINE1":"1 47134U 20088N   22108.77396231  .00008346  00000-0  57833-3 0  9998","MEAN_MOTION_DOT":"0.00008346","LAUNCH_DATE":"2020-11-25","EPHEMERIS_TYPE":"0","GP_ID":"201580318","OBJECT_NAME":"STARLINK-1844","SEMIMAJOR_AXIS":"6925.312","CLASSIFICATION_TYPE":"U","TIME_SYSTEM":"UTC","ECCENTRICITY":"0.00018110","NORAD_CAT_ID":"47134","SITE":"AFETR","RA_OF_ASC_NODE":"200.3582"},{"RCS_SIZE":"LARGE","TLE_LINE2":"2 47135  53.0538 191.1751 0001579  49.7563 310.3564 15.06406074 77781","PERIAPSIS":"546.101","REF_FRAME":"TEME","PERIOD":"95.592","OBJECT_ID":"2020-088P","MEAN_ELEMENT_THEORY":"SGP4","APOAPSIS":"548.288","BSTAR":"0.00046674000000","INCLINATION":"53.0538","MEAN_ANOMALY":"310.3564","FILE":"3407402","TLE_LINE1":"1 47135U 20088P   22108.59428523  .00006678  00000-0  46674-3 0  9996","OBJECT_TYPE":"PAYLOAD","MEAN_MOTION_DOT":"0.00006678","DECAY_DATE":null,"CENTER_NAME":"EARTH","EPOCH":"2022-04-18T14:15:46.243872","MEAN_MOTION_DDOT":"0.0000000000000","MEAN_MOTION":"15.06406074","ARG_OF_PERICENTER":"49.7563","REV_AT_EPOCH":"7778","ELEMENT_SET_NO":"999","COUNTRY_CODE":"US","SITE":"AFETR","NORAD_CAT_ID":"47135","RA_OF_ASC_NODE":"191.1751","ECCENTRICITY":"0.00015790","OBJECT_NAME":"STARLINK-1845","GP_ID":"201580569","CLASSIFICATION_TYPE":"U","TIME_SYSTEM":"UTC","SEMIMAJOR_AXIS":"6925.330","EPHEMERIS_TYPE":"0","LAUNCH_DATE":"2020-11-25"},{"OBJECT_ID":"2020-088Q","PERIOD":"95.591","MEAN_ELEMENT_THEORY":"SGP4","RCS_SIZE":"LARGE","TLE_LINE2":"2 47136  53.0554 200.8822 0001573  67.2185 292.8970 15.06413224 77652","REF_FRAME":"TEME","PERIAPSIS":"546.084","MEAN_ANOMALY":"292.8970","FILE":"3407402","BSTAR":"0.00065257000000","APOAPSIS":"548.262","INCLINATION":"53.0554","MEAN_MOTION":"15.06413224","MEAN_MOTION_DDOT":"0.0000000000000","REV_AT_EPOCH":"7765","ARG_OF_PERICENTER":"67.2185","COUNTRY_CODE":"US","ELEMENT_SET_NO":"999","OBJECT_TYPE":"PAYLOAD","TLE_LINE1":"1 47136U 20088Q   22108.65970048  .00009455  00000-0  65257-3 0  9992","MEAN_MOTION_DOT":"0.00009455","DECAY_DATE":null,"CENTER_NAME":"EARTH","EPOCH":"2022-04-18T15:49:58.121472","GP_ID":"201579317","OBJECT_NAME":"STARLINK-1846","SEMIMAJOR_AXIS":"6925.308","TIME_SYSTEM":"UTC","CLASSIFICATION_TYPE":"U","LAUNCH_DATE":"2020-11-25","EPHEMERIS_TYPE":"0","NORAD_CAT_ID":"47136","SITE":"AFETR","RA_OF_ASC_NODE":"200.8822","ECCENTRICITY":"0.00015730"},{"LAUNCH_DATE":"2020-11-25","EPHEMERIS_TYPE":"0","SEMIMAJOR_AXIS":"6925.274","CLASSIFICATION_TYPE":"U","TIME_SYSTEM":"UTC","GP_ID":"201579567","OBJECT_NAME":"STARLINK-1849","ECCENTRICITY":"0.00017070","RA_OF_ASC_NODE":"190.6503","NORAD_CAT_ID":"47137","SITE":"AFETR","COUNTRY_CODE":"US","ELEMENT_SET_NO":"999","REV_AT_EPOCH":"7780","ARG_OF_PERICENTER":"50.3109","MEAN_MOTION":"15.06424306","MEAN_MOTION_DDOT":"0.0000000000000","EPOCH":"2022-04-18T17:00:19.458720","CENTER_NAME":"EARTH","DECAY_DATE":null,"MEAN_MOTION_DOT":"0.00018318","OBJECT_TYPE":"PAYLOAD","TLE_LINE1":"1 47137U 20088R   22108.70855855  .00018318  00000-0  12446-2 0  9996","FILE":"3407402","MEAN_ANOMALY":"309.8030","INCLINATION":"53.0535","BSTAR":"0.00124460000000","APOAPSIS":"548.321","MEAN_ELEMENT_THEORY":"SGP4","OBJECT_ID":"2020-088R","PERIOD":"95.591","REF_FRAME":"TEME","PERIAPSIS":"545.957","TLE_LINE2":"2 47137  53.0535 190.6503 0001707  50.3109 309.8030 15.06424306 77808","RCS_SIZE":"LARGE"}];
